{"type": "FeatureCollection", "features": [ {"type": "Feature", "properties": {"norad_id": 34907, "name": "COSMOS 2251 DEB", "group": "cosmos-2251-debris", "lat": -60.732395081062876, "lon": -78.69853987328727, "alt_km": 469.9327797287142, "timestamp": "2025-12-02T13:52:17.656767+00:00", "meta": {"OBJECT_NAME": "COSMOS 2251 DEB", "OBJECT_ID": "1993-036ADC", "EPOCH": "2025-12-01T13:20:50.450208", "MEAN_MOTION": 15.34989488, "ECCENTRICITY": 0.00161182, "INCLINATION": 73.9763, "RA_OF_ASC_NODE": 72.6494, "ARG_OF_PERICENTER": 358.1871, "MEAN_ANOMALY": 1.9272, "EPHEMERIS_TYPE": 0, "CLASSIFICATION_TYPE": "U", "NORAD_CAT_ID": 34907, "ELEMENT_SET_NO": 999, "REV_AT_EPOCH": 87801, "BSTAR": 0.0077028741, "MEAN_MOTION_DOT": 0.00272089, "MEAN_MOTION_DDOT": 0}, "tle": {"line1": "1 34907U 93036ADC 25335.55613947  .00272089  00000+0  77029-2 0  9996", "line2": "2 34907  73.9763  72.6494 0016118 358.1871   1.9272 15.34989488878016"}}, "geometry": {"type": "Point", "coordinates": [-78.69853987328727, -60.732395081062876]}}, {"type": "Feature", "properties": {"norad_id": 34908, "name": "COSMOS 2251 DEB", "group": "cosmos-2251-debris", "lat": 67.48861728712005, "lon": 85.9275028227298, "alt_km": 732.4878792978507, "timestamp": "2025-12-02T13:52:17.656777+00:00", "meta": {"OBJECT_NAME": "COSMOS 2251 DEB", "OBJECT_ID": "1993-036ADD", "EPOCH": "2025-12-01T23:18:58.685184", "MEAN_MOTION": 14.37345471, "ECCENTRICITY": 0.0039851, "INCLINATION": 74.0598, "RA_OF_ASC_NODE": 43.443, "ARG_OF_PERICENTER": 63.2193, "MEAN_ANOMALY": 113.7386, "EPHEMERIS_TYPE": 0, "CLASSIFICATION_TYPE": "U", "NORAD_CAT_ID": 34908, "ELEMENT_SET_NO": 999, "REV_AT_EPOCH": 87124, "BSTAR": 0.00060872017, "MEAN_MOTION_DOT": 1.808e-05, "MEAN_MOTION_DDOT": 0}, "tle": {"line1": "1 34908U 93036ADD 25335.97151256  .00001808  00000+0  60872-3 0  9991", "line2": "2 34908  74.0598  43.4430 0039851  63.2193 113.7386 14.37345471871247"}}, "geometry": {"type": "Point", "coordinates": [85.9275028227298, 67.48861728712005]}}, {"type": "Feature", "properties": {"norad_id": 34909, "name": "COSMOS 2251 DEB", "group": "cosmos-2251-debris", "lat": 8.9397466892958, "lon": -86.03850244517726, "alt_km": 611.4073582568508, "timestamp": "2025-12-02T13:52:17.656788+00:00", "meta": {"OBJECT_NAME": "COSMOS 2251 DEB", "OBJECT_ID": "1993-036ADE", "EPOCH": "2025-12-02T01:43:14.134368", "MEAN_MOTION": 14.77668146, "ECCENTRICITY": 0.00852643, "INCLINATION": 74.0135, "RA_OF_ASC_NODE": 97.5409, "ARG_OF_PERICENTER": 235.6442, "MEAN_ANOMALY": 123.6647, "EPHEMERIS_TYPE": 0, "CLASSIFICATION_TYPE": "U", "NORAD_CAT_ID": 34909, "ELEMENT_SET_NO": 999, "REV_AT_EPOCH": 66694, "BSTAR": 0.00079428546, "MEAN_MOTION_DOT": 6.01e-05, "MEAN_MOTION_DDOT": 0}, "tle": {"line1": "1 34909U 93036ADE 25336.07169137  .00006010  00000+0  79429-3 0  9999", "line2": "2 34909  74.0135  97.5409 0085264 235.6442 123.6647 14.77668146666942"}}, "geometry": {"type": "Point", "coordinates": [-86.03850244517726, 8.9397466892958]}}, {"type": "Feature", "properties": {"norad_id": 34910, "name": "COSMOS 2251 DEB", "group": "cosmos-2251-debris", "lat": -25.09728309431933, "lon": -54.75237269131518, "alt_km": 820.851157686101, "timestamp": "2025-12-02T13:52:17.656798+00:00", "meta": {"OBJECT_NAME": "COSMOS 2251 DEB", "OBJECT_ID": "1993-036ADF", "EPOCH": "2025-11-30T20:20:30.072192", "MEAN_MOTION": 13.37637623, "ECCENTRICITY": 0.04682276, "INCLINATION": 73.8734, "RA_OF_ASC_NODE": 120.1896, "ARG_OF_PERICENTER": 241.0425, "MEAN_ANOMALY": 278.0333, "EPHEMERIS_TYPE": 0, "CLASSIFICATION_TYPE": "U", "NORAD_CAT_ID": 34910, "ELEMENT_SET_NO": 999, "REV_AT_EPOCH": 81365, "BSTAR": 0.0010248313, "MEAN_MOTION_DOT": 9.9e-06, "MEAN_MOTION_DDOT": 0}, "tle": {"line1": "1 34910U 93036ADF 25334.84757028  .00000990  00000+0  10248-2 0  9990", "line2": "2 34910  73.8734 120.1896 0468227 241.0425 278.0333 13.37637623813655"}}, "geometry": {"type": "Point", "coordinates": [-54.75237269131518, -25.09728309431933]}}, {"type": "Feature", "properties": {"norad_id": 34911, "name": "COSMOS 2251 DEB", "group": "cosmos-2251-debris", "lat": -37.978585028513166, "lon": 97.0194287730051, "alt_km": 759.6179925007018, "timestamp": "2025-12-02T13:52:17.656809+00:00", "meta": {"OBJECT_NAME": "COSMOS 2251 DEB", "OBJECT_ID": "1993-036ADG", "EPOCH": "2025-12-01T06:17:35.547072", "MEAN_MOTION": 14.59338789, "ECCENTRICITY": 0.00830651, "INCLINATION": 74.0415, "RA_OF_ASC_NODE": 266.6175, "ARG_OF_PERICENTER": 35.0192, "MEAN_ANOMALY": 115.113, "EPHEMERIS_TYPE": 0, "CLASSIFICATION_TYPE": "U", "NORAD_CAT_ID": 34911, "ELEMENT_SET_NO": 999, "REV_AT_EPOCH": 88419, "BSTAR": 0.00022765686, "MEAN_MOTION_DOT": 1.098e-05, "MEAN_MOTION_DDOT": 0}, "tle": {"line1": "1 34911U 93036ADG 25335.26221698  .00001098  00000+0  22766-3 0  9996", "line2": "2 34911  74.0415 266.6175 0083065  35.0192 115.1130 14.59338789884195"}}, "geometry": {"type": "Point", "coordinates": [97.0194287730051, -37.978585028513166]}}, {"type": "Feature", "properties": {"norad_id": 34913, "name": "COSMOS 2251 DEB", "group": "cosmos-2251-debris", "lat": 44.00362165543344, "lon": -42.8208183909646, "alt_km": 758.06858360959, "timestamp": "2025-12-02T13:52:17.656819+00:00", "meta": {"OBJECT_NAME": "COSMOS 2251 DEB", "OBJECT_ID": "1993-036ADJ", "EPOCH": "2025-12-01T14:46:42.078720", "MEAN_MOTION": 14.34631469, "ECCENTRICITY": 0.00199745, "INCLINATION": 74.0272, "RA_OF_ASC_NODE": 302.8831, "ARG_OF_PERICENTER": 56.4339, "MEAN_ANOMALY": 62.4008, "EPHEMERIS_TYPE": 0, "CLASSIFICATION_TYPE": "U", "NORAD_CAT_ID": 34913, "ELEMENT_SET_NO": 999, "REV_AT_EPOCH": 65028, "BSTAR": 6.1128931e-05, "MEAN_MOTION_DOT": 1.47e-06, "MEAN_MOTION_DDOT": 0}, "tle": {"line1": "1 34913U 93036ADJ 25335.61576480  .00000147  00000+0  61129-4 0  9990", "line2": "2 34913  74.0272 302.8831 0019974  56.4339  62.4008 14.34631469650281"}}, "geometry": {"type": "Point", "coordinates": [-42.8208183909646, 44.00362165543344]}}, {"type": "Feature", "properties": {"norad_id": 34918, "name": "COSMOS 2251 DEB", "group": "cosmos-2251-debris", "lat": -49.390958296663875, "lon": -46.44565053729802, "alt_km": 672.8839820419789, "timestamp": "2025-12-02T13:52:17.656829+00:00", "meta": {"OBJECT_NAME": "COSMOS 2251 DEB", "OBJECT_ID": "1993-036ADP", "EPOCH": "2025-12-02T07:49:20.078976", "MEAN_MOTION": 14.60858459, "ECCENTRICITY": 0.00341815, "INCLINATION": 74.0712, "RA_OF_ASC_NODE": 333.4916, "ARG_OF_PERICENTER": 302.4495, "MEAN_ANOMALY": 120.4085, "EPHEMERIS_TYPE": 0, "CLASSIFICATION_TYPE": "U", "NORAD_CAT_ID": 34918, "ELEMENT_SET_NO": 999, "REV_AT_EPOCH": 65184, "BSTAR": 0.0024748697, "MEAN_MOTION_DOT": 0.00012194, "MEAN_MOTION_DDOT": 0}, "tle": {"line1": "1 34918U 93036ADP 25336.32592684  .00012194  00000+0  24749-2 0  9998", "line2": "2 34918  74.0712 333.4916 0034181 302.4495 120.4085 14.60858459651845"}}, "geometry": {"type": "Point", "coordinates": [-46.44565053729802, -49.390958296663875]}}, {"type": "Feature", "properties": {"norad_id": 34924, "name": "COSMOS 2251 DEB", "group": "cosmos-2251-debris", "lat": -15.410808287882771, "lon": 104.30803367804312, "alt_km": 731.3232537962776, "timestamp": "2025-12-02T13:52:17.656839+00:00", "meta": {"OBJECT_NAME": "COSMOS 2251 DEB", "OBJECT_ID": "1993-036ADV", "EPOCH": "2025-12-02T04:22:00.331392", "MEAN_MOTION": 14.59847465, "ECCENTRICITY": 0.00553906, "INCLINATION": 74.0396, "RA_OF_ASC_NODE": 109.5877, "ARG_OF_PERICENTER": 196.6336, "MEAN_ANOMALY": 226.616, "EPHEMERIS_TYPE": 0, "CLASSIFICATION_TYPE": "U", "NORAD_CAT_ID": 34924, "ELEMENT_SET_NO": 999, "REV_AT_EPOCH": 87569, "BSTAR": 0.0014998251, "MEAN_MOTION_DOT": 7.306e-05, "MEAN_MOTION_DDOT": 0}, "tle": {"line1": "1 34924U 93036ADV 25336.18194828  .00007306  00000+0  14998-2 0  9991", "line2": "2 34924  74.0396 109.5877 0055390 196.6336 226.6160 14.59847465875697"}}, "geometry": {"type": "Point", "coordinates": [104.30803367804312, -15.410808287882771]}}, {"type": "Feature", "properties": {"norad_id": 34944, "name": "COSMOS 2251 DEB", "group": "cosmos-2251-debris", "lat": -37.98643324207475, "lon": -122.79707720071973, "alt_km": 970.606746769171, "timestamp": "2025-12-02T13:52:17.656849+00:00", "meta": {"OBJECT_NAME": "COSMOS 2251 DEB", "OBJECT_ID": "1993-036ADX", "EPOCH": "2025-11-29T02:52:15.324384", "MEAN_MOTION": 14.1413005, "ECCENTRICITY": 0.02197265, "INCLINATION": 73.749, "RA_OF_ASC_NODE": 256.6053, "ARG_OF_PERICENTER": 106.5861, "MEAN_ANOMALY": 255.9534, "EPHEMERIS_TYPE": 0, "CLASSIFICATION_TYPE": "U", "NORAD_CAT_ID": 34944, "ELEMENT_SET_NO": 999, "REV_AT_EPOCH": 63890, "BSTAR": 0.00066557018, "MEAN_MOTION_DOT": 1.572e-05, "MEAN_MOTION_DDOT": 0}, "tle": {"line1": "1 34944U 93036ADX 25333.11962181  .00001572  00000+0  66557-3 0  9996", "line2": "2 34944  73.7490 256.6053 0219726 106.5861 255.9534 14.14130050638905"}}, "geometry": {"type": "Point", "coordinates": [-122.79707720071973, -37.98643324207475]}}, {"type": "Feature", "properties": {"norad_id": 34946, "name": "COSMOS 2251 DEB", "group": "cosmos-2251-debris", "lat": 60.794207406493285, "lon": 150.75621096895972, "alt_km": 649.8099870139522, "timestamp": "2025-12-02T13:52:17.656859+00:00", "meta": {"OBJECT_NAME": "COSMOS 2251 DEB", "OBJECT_ID": "1993-036ADZ", "EPOCH": "2025-11-30T18:38:49.789824", "MEAN_MOTION": 14.61892999, "ECCENTRICITY": 0.00492329, "INCLINATION": 74.0241, "RA_OF_ASC_NODE": 5.0332, "ARG_OF_PERICENTER": 145.8487, "MEAN_ANOMALY": 214.5864, "EPHEMERIS_TYPE": 0, "CLASSIFICATION_TYPE": "U", "NORAD_CAT_ID": 34946, "ELEMENT_SET_NO": 999, "REV_AT_EPOCH": 88034, "BSTAR": 0.00052129859, "MEAN_MOTION_DOT": 2.623e-05, "MEAN_MOTION_DDOT": 0}, "tle": {"line1": "1 34946U 93036ADZ 25334.77696516  .00002623  00000+0  52130-3 0  9997", "line2": "2 34946  74.0241   5.0332 0049232 145.8487 214.5864 14.61892999880347"}}, "geometry": {"type": "Point", "coordinates": [150.75621096895972, 60.794207406493285]}}]}